STARLINK-11331 [DTC]
1 61537U 24184F   26061.16668981  .01472184  00000+0  60673-2 0  9991
2 61537  53.1501 272.8090 0006562 277.9313  59.7218 15.82670787  6018
STARLINK-36727
1 67875U 26034AB  26061.16668981 -.01446718  00000+0 -75987-2 0  9998
2 67875  53.1503 248.8410 0001039  72.4539 154.5041 15.82667303  2656
